{
  "type": "FeatureCollection",
  "features": [
    {
      "type": "Feature",
      "properties": {
        "norad_id": 46805,
        "name": "COSMOS 2547 (705K)",
        "group": "glo-ops",
        "lat": -59.4976412965193,
        "lon": 145.08203004578291,
        "alt_km": 19128.094082199274,
        "timestamp": "2025-12-07T20:38:14.325163+00:00",
        "meta_object_name": "COSMOS 2547 (705K)",
        "meta_object_id": "2020-075A",
        "meta_epoch": "2025-12-07T00:22:59.780352",
        "meta_mean_motion": 2.13099929,
        "meta_eccentricity": 0.00062312,
        "meta_inclination": 64.5959,
        "meta_ra_of_asc_node": 198.8877,
        "meta_arg_of_pericenter": 228.9234,
        "meta_mean_anomaly": 131.1078,
        "meta_ephemeris_type": 0,
        "meta_classification_type": "U",
        "meta_norad_cat_id": 46805,
        "meta_element_set_no": 999,
        "meta_rev_at_epoch": 3981,
        "meta_bstar": 0,
        "meta_mean_motion_dot": 6.4e-07,
        "meta_mean_motion_ddot": 0,
        "tle_line1": "1 46805U 20075A   25341.01596968  .00000064  00000+0  00000+0 0  9994",
        "tle_line2": "2 46805  64.5959 198.8877 0006231 228.9234 131.1078  2.13099929 39819"
      },
      "geometry": {
        "type": "Point",
        "coordinates": [
          145.08203004578291,
          -59.4976412965193
        ]
      }
    },
    {
      "type": "Feature",
      "properties": {
        "norad_id": 52984,
        "name": "COSMOS 2557 (706K)",
        "group": "glo-ops",
        "lat": 17.62413089159557,
        "lon": 132.45654371742145,
        "alt_km": 19143.710337011144,
        "timestamp": "2025-12-07T20:38:14.325175+00:00",
        "meta_object_name": "COSMOS 2557 (706K)",
        "meta_object_id": "2022-075A",
        "meta_epoch": "2025-12-06T05:49:32.114784",
        "meta_mean_motion": 2.13101746,
        "meta_eccentricity": 0.001371,
        "meta_inclination": 64.4134,
        "meta_ra_of_asc_node": 321.2801,
        "meta_arg_of_pericenter": 276.8497,
        "meta_mean_anomaly": 82.9895,
        "meta_ephemeris_type": 0,
        "meta_classification_type": "U",
        "meta_norad_cat_id": 52984,
        "meta_element_set_no": 999,
        "meta_rev_at_epoch": 2660,
        "meta_bstar": 0,
        "meta_mean_motion_dot": -5.1e-07,
        "meta_mean_motion_ddot": 0,
        "tle_line1": "1 52984U 22075A   25340.24273281 -.00000051  00000+0  00000+0 0  9992",
        "tle_line2": "2 52984  64.4134 321.2801 0013710 276.8497  82.9895  2.13101746 26604"
      },
      "geometry": {
        "type": "Point",
        "coordinates": [
          132.45654371742145,
          17.62413089159557
        ]
      }
    },
    {
      "type": "Feature",
      "properties": {
        "norad_id": 54031,
        "name": "COSMOS 2559 (707K)",
        "group": "glo-ops",
        "lat": -51.718627570604006,
        "lon": -76.12844415173063,
        "alt_km": 19144.639825394694,
        "timestamp": "2025-12-07T20:38:14.325186+00:00",
        "meta_object_name": "COSMOS 2559 (707K)",
        "meta_object_id": "2022-130A",
        "meta_epoch": "2025-12-03T17:10:26.893920",
        "meta_mean_motion": 2.13101235,
        "meta_eccentricity": 0.00120262,
        "meta_inclination": 64.3873,
        "meta_ra_of_asc_node": 321.4588,
        "meta_arg_of_pericenter": 192.7508,
        "meta_mean_anomaly": 167.2215,
        "meta_ephemeris_type": 0,
        "meta_classification_type": "U",
        "meta_norad_cat_id": 54031,
        "meta_element_set_no": 999,
        "meta_rev_at_epoch": 2452,
        "meta_bstar": 0,
        "meta_mean_motion_dot": -4.4e-07,
        "meta_mean_motion_ddot": 0,
        "tle_line1": "1 54031U 22130A   25337.71558905 -.00000044  00000+0  00000+0 0  9998",
        "tle_line2": "2 54031  64.3873 321.4588 0012026 192.7508 167.2215  2.13101235 24525"
      },
      "geometry": {
        "type": "Point",
        "coordinates": [
          -76.12844415173063,
          -51.718627570604006
        ]
      }
    },
    {
      "type": "Feature",
      "properties": {
        "norad_id": 54377,
        "name": "COSMOS 2564 (761)",
        "group": "glo-ops",
        "lat": 50.635561286588526,
        "lon": -125.7910551268399,
        "alt_km": 19142.70999660955,
        "timestamp": "2025-12-07T20:38:14.325197+00:00",
        "meta_object_name": "COSMOS 2564 (761)",
        "meta_object_id": "2022-161A",
        "meta_epoch": "2025-12-06T20:16:19.958016",
        "meta_mean_motion": 2.13101987,
        "meta_eccentricity": 0.0008674,
        "meta_inclination": 64.7378,
        "meta_ra_of_asc_node": 199.0949,
        "meta_arg_of_pericenter": 205.6872,
        "meta_mean_anomaly": 154.3558,
        "meta_ephemeris_type": 0,
        "meta_classification_type": "U",
        "meta_norad_cat_id": 54377,
        "meta_element_set_no": 999,
        "meta_rev_at_epoch": 2353,
        "meta_bstar": 0,
        "meta_mean_motion_dot": 6.7e-07,
        "meta_mean_motion_ddot": 0,
        "tle_line1": "1 54377U 22161A   25340.84467544  .00000067  00000+0  00000+0 0  9995",
        "tle_line2": "2 54377  64.7378 199.0949 0008674 205.6872 154.3558  2.13101987 23535"
      },
      "geometry": {
        "type": "Point",
        "coordinates": [
          -125.7910551268399,
          50.635561286588526
        ]
      }
    },
    {
      "type": "Feature",
      "properties": {
        "norad_id": 57517,
        "name": "COSMOS 2569 (703K)",
        "group": "glo-ops",
        "lat": 42.888223536946434,
        "lon": 104.48451939965723,
        "alt_km": 19138.309954598735,
        "timestamp": "2025-12-07T20:38:14.325208+00:00",
        "meta_object_name": "COSMOS 2569 (703K)",
        "meta_object_id": "2023-114A",
        "meta_epoch": "2025-12-01T16:42:34.469856",
        "meta_mean_motion": 2.13103822,
        "meta_eccentricity": 0.0010109,
        "meta_inclination": 65.1883,
        "meta_ra_of_asc_node": 79.2867,
        "meta_arg_of_pericenter": 287.0179,
        "meta_mean_anomaly": 72.8703,
        "meta_ephemeris_type": 0,
        "meta_classification_type": "U",
        "meta_norad_cat_id": 57517,
        "meta_element_set_no": 999,
        "meta_rev_at_epoch": 1805,
        "meta_bstar": 0,
        "meta_mean_motion_dot": -1.6e-07,
        "meta_mean_motion_ddot": 0,
        "tle_line1": "1 57517U 23114A   25335.69623229 -.00000016  00000+0  00000+0 0  9999",
        "tle_line2": "2 57517  65.1883  79.2867 0010109 287.0179  72.8703  2.13103822 18055"
      },
      "geometry": {
        "type": "Point",
        "coordinates": [
          104.48451939965723,
          42.888223536946434
        ]
      }
    },
    {
      "type": "Feature",
      "properties": {
        "norad_id": 63130,
        "name": "COSMOS 2584 (704K)",
        "group": "glo-ops",
        "lat": 39.441035099304095,
        "lon": -123.24256470136503,
        "alt_km": 19121.939119234503,
        "timestamp": "2025-12-07T20:38:14.325219+00:00",
        "meta_object_name": "COSMOS 2584 (704K)",
        "meta_object_id": "2025-042A",
        "meta_epoch": "2025-12-06T17:52:16.826016",
        "meta_mean_motion": 2.13102912,
        "meta_eccentricity": 0.00075908,
        "meta_inclination": 64.9729,
        "meta_ra_of_asc_node": 79.3502,
        "meta_arg_of_pericenter": 215.663,
        "meta_mean_anomaly": 144.2957,
        "meta_ephemeris_type": 0,
        "meta_classification_type": "U",
        "meta_norad_cat_id": 63130,
        "meta_element_set_no": 999,
        "meta_rev_at_epoch": 594,
        "meta_bstar": 0,
        "meta_mean_motion_dot": -1.5e-07,
        "meta_mean_motion_ddot": 0,
        "tle_line1": "1 63130U 25042A   25340.74463919 -.00000015  00000+0  00000+0 0  9998",
        "tle_line2": "2 63130  64.9729  79.3502 0007590 215.6630 144.2957  2.13102912  5943"
      },
      "geometry": {
        "type": "Point",
        "coordinates": [
          -123.24256470136503,
          39.441035099304095
        ]
      }
    },
    {
      "type": "Feature",
      "properties": {
        "norad_id": 65590,
        "name": "COSMOS 2596 (708K)",
        "group": "glo-ops",
        "lat": -60.380355783946214,
        "lon": -162.2623189737515,
        "alt_km": 19113.915625529524,
        "timestamp": "2025-12-07T20:38:14.325231+00:00",
        "meta_object_name": "COSMOS 2596 (708K)",
        "meta_object_id": "2025-206B",
        "meta_epoch": "2025-12-07T02:40:02.915904",
        "meta_mean_motion": 2.13100202,
        "meta_eccentricity": 0.00140103,
        "meta_inclination": 64.7475,
        "meta_ra_of_asc_node": 321.6695,
        "meta_arg_of_pericenter": 305.1353,
        "meta_mean_anomaly": 94.5445,
        "meta_ephemeris_type": 0,
        "meta_classification_type": "U",
        "meta_norad_cat_id": 65590,
        "meta_element_set_no": 999,
        "meta_rev_at_epoch": 182,
        "meta_bstar": 0,
        "meta_mean_motion_dot": -5.1e-07,
        "meta_mean_motion_ddot": 0,
        "tle_line1": "1 65590U 25206B   25341.11114486 -.00000051  00000+0  00000+0 0  9996",
        "tle_line2": "2 65590  64.7475 321.6695 0014010 305.1353  94.5445  2.13100202  1821"
      },
      "geometry": {
        "type": "Point",
        "coordinates": [
          -162.2623189737515,
          -60.380355783946214
        ]
      }
    }
  ]
}